STARLINK-36224          
1 67203U 25304M   26015.14931864  .00029424  00000+0  67211-3 0  9992
2 67203  70.0005 314.3001 0003310 274.2090  85.8713 15.42739179  5741
STARLINK-36185          
1 67204U 25304N   26015.16670139  .00049459  00000+0  11261-2 0  9993
2 67204  70.0005 314.2010 0003200 270.2790 231.3249 15.42698702  5830
STARLINK-36197          
1 67205U 25304P   26015.16670139  .00054954  00000+0  12489-2 0  9993
2 67205  70.0000 314.1492 0003791 264.0521 282.5009 15.42721346  5807
STARLINK-36056          
1 67206U 25304Q   26015.16670139  .00065578  00000+0  14903-2 0  9991
2 67206  70.0007 314.0976 0002807 269.0694 322.5594 15.42670140  5803
STARLINK-36225          
1 67207U 25304R   26014.28008191 -.00156470  00000+0 -26193-2 0  9995
2 67207  70.0004 316.4781 0002921 294.7758  65.3125 15.52217682  5614
STARLINK-36265          
1 67208U 25304S   26015.16354454  .00019048  00000+0  43683-3 0  9991
2 67208  70.0002 314.3512 0003321 266.9382  93.1420 15.42741601  5744
STARLINK-36226          
1 67209U 25304T   26015.15543943  .00020494  00000+0  46975-3 0  9998
2 67209  70.0005 314.3216 0003442 269.1872  90.8915 15.42735659  5741
STARLINK-36173          
1 67210U 25304U   26015.14715720  .00006775  00000+0  15788-3 0  9997
2 67210  70.0004 314.2914 0002690 266.5559  93.5315 15.42728802  5749
STARLINK-36280          
1 67211U 25304V   26015.14319410  .00024425  00000+0  55889-3 0  9992
2 67211  70.0004 314.2761 0002870 269.3073  90.7780 15.42738223  5745
STARLINK-36213          
1 67212U 25304W   26015.16670139  .00050834  00000+0  11572-2 0  9996
2 67212  70.0003 314.1874 0003166 273.3155 239.2951 15.42696324  5839
STARLINK-36199          
1 67213U 25304X   26015.16670139  .00059415  00000+0  13505-2 0  9999
2 67213  70.0002 314.1358 0003392 277.0064 280.5971 15.42694380  5838
STARLINK-36203          
1 67214U 25304Y   26015.16670139  .00084710  00000+0  19178-2 0  9998
2 67214  70.0005 314.1103 0002929 284.4338 296.0572 15.42693955  5837
