CCSDS_OMM_VERS = 2.0
CREATION_DATE  = 
ORIGINATOR     = 

OBJECT_NAME    = STARLINK-36224
OBJECT_ID      = 2025-304M
CENTER_NAME    = EARTH
REF_FRAME      = TEME
TIME_SYSTEM    = UTC
MEAN_ELEMENT_THEORY = SGP/SGP4

EPOCH          = 2026-01-15T03:35:01.130496
MEAN_MOTION    = 15.42739179
ECCENTRICITY   = .000331
INCLINATION    = 70.0005
RA_OF_ASC_NODE = 314.3001
ARG_OF_PERICENTER = 274.2090
MEAN_ANOMALY   = 85.8713

EPHEMERIS_TYPE = 0
CLASSIFICATION_TYPE = U
NORAD_CAT_ID   = 67203
ELEMENT_SET_NO = 999
REV_AT_EPOCH   = 574
BSTAR          = .67211E-3
MEAN_MOTION_DOT = .29424E-3
MEAN_MOTION_DDOT = 0

CCSDS_OMM_VERS = 2.0
CREATION_DATE  = 
ORIGINATOR     = 

OBJECT_NAME    = STARLINK-36185
OBJECT_ID      = 2025-304N
CENTER_NAME    = EARTH
REF_FRAME      = TEME
TIME_SYSTEM    = UTC
MEAN_ELEMENT_THEORY = SGP/SGP4

EPOCH          = 2026-01-15T04:00:03.000096
MEAN_MOTION    = 15.42698702
ECCENTRICITY   = .00032
INCLINATION    = 70.0005
RA_OF_ASC_NODE = 314.2010
ARG_OF_PERICENTER = 270.2790
MEAN_ANOMALY   = 231.3249

EPHEMERIS_TYPE = 0
CLASSIFICATION_TYPE = U
NORAD_CAT_ID   = 67204
ELEMENT_SET_NO = 999
REV_AT_EPOCH   = 583
BSTAR          = .11261E-2
MEAN_MOTION_DOT = .49459E-3
MEAN_MOTION_DDOT = 0

CCSDS_OMM_VERS = 2.0
CREATION_DATE  = 
ORIGINATOR     = 

OBJECT_NAME    = STARLINK-36197
OBJECT_ID      = 2025-304P
CENTER_NAME    = EARTH
REF_FRAME      = TEME
TIME_SYSTEM    = UTC
MEAN_ELEMENT_THEORY = SGP/SGP4

EPOCH          = 2026-01-15T04:00:03.000096
MEAN_MOTION    = 15.42721346
ECCENTRICITY   = .0003791
INCLINATION    = 70.0000
RA_OF_ASC_NODE = 314.1492
ARG_OF_PERICENTER = 264.0521
MEAN_ANOMALY   = 282.5009

EPHEMERIS_TYPE = 0
CLASSIFICATION_TYPE = U
NORAD_CAT_ID   = 67205
ELEMENT_SET_NO = 999
REV_AT_EPOCH   = 580
BSTAR          = .12489E-2
MEAN_MOTION_DOT = .54954E-3
MEAN_MOTION_DDOT = 0

CCSDS_OMM_VERS = 2.0
CREATION_DATE  = 
ORIGINATOR     = 

OBJECT_NAME    = STARLINK-36056
OBJECT_ID      = 2025-304Q
CENTER_NAME    = EARTH
REF_FRAME      = TEME
TIME_SYSTEM    = UTC
MEAN_ELEMENT_THEORY = SGP/SGP4

EPOCH          = 2026-01-15T04:00:03.000096
MEAN_MOTION    = 15.42670140
ECCENTRICITY   = .0002807
INCLINATION    = 70.0007
RA_OF_ASC_NODE = 314.0976
ARG_OF_PERICENTER = 269.0694
MEAN_ANOMALY   = 322.5594

EPHEMERIS_TYPE = 0
CLASSIFICATION_TYPE = U
NORAD_CAT_ID   = 67206
ELEMENT_SET_NO = 999
REV_AT_EPOCH   = 580
BSTAR          = .14903E-2
MEAN_MOTION_DOT = .65578E-3
MEAN_MOTION_DDOT = 0

CCSDS_OMM_VERS = 2.0
CREATION_DATE  = 
ORIGINATOR     = 

OBJECT_NAME    = STARLINK-36225
OBJECT_ID      = 2025-304R
CENTER_NAME    = EARTH
REF_FRAME      = TEME
TIME_SYSTEM    = UTC
MEAN_ELEMENT_THEORY = SGP/SGP4

EPOCH          = 2026-01-14T06:43:19.077024
MEAN_MOTION    = 15.52217682
ECCENTRICITY   = .00029218
INCLINATION    = 70.0004
RA_OF_ASC_NODE = 316.4781
ARG_OF_PERICENTER = 294.7758
MEAN_ANOMALY   = 65.3125

EPHEMERIS_TYPE = 0
CLASSIFICATION_TYPE = U
NORAD_CAT_ID   = 67207
ELEMENT_SET_NO = 999
REV_AT_EPOCH   = 561
BSTAR          = -.26192985E-2
MEAN_MOTION_DOT = -.15647E-2
MEAN_MOTION_DDOT = 0

CCSDS_OMM_VERS = 2.0
CREATION_DATE  = 
ORIGINATOR     = 

OBJECT_NAME    = STARLINK-36265
OBJECT_ID      = 2025-304S
CENTER_NAME    = EARTH
REF_FRAME      = TEME
TIME_SYSTEM    = UTC
MEAN_ELEMENT_THEORY = SGP/SGP4

EPOCH          = 2026-01-15T03:55:30.248256
MEAN_MOTION    = 15.42741601
ECCENTRICITY   = .0003321
INCLINATION    = 70.0002
RA_OF_ASC_NODE = 314.3512
ARG_OF_PERICENTER = 266.9382
MEAN_ANOMALY   = 93.1420

EPHEMERIS_TYPE = 0
CLASSIFICATION_TYPE = U
NORAD_CAT_ID   = 67208
ELEMENT_SET_NO = 999
REV_AT_EPOCH   = 574
BSTAR          = .43683E-3
MEAN_MOTION_DOT = .19048E-3
MEAN_MOTION_DDOT = 0

CCSDS_OMM_VERS = 2.0
CREATION_DATE  = 
ORIGINATOR     = 

OBJECT_NAME    = STARLINK-36226
OBJECT_ID      = 2025-304T
CENTER_NAME    = EARTH
REF_FRAME      = TEME
TIME_SYSTEM    = UTC
MEAN_ELEMENT_THEORY = SGP/SGP4

EPOCH          = 2026-01-15T03:43:49.966752
MEAN_MOTION    = 15.42735659
ECCENTRICITY   = .0003442
INCLINATION    = 70.0005
RA_OF_ASC_NODE = 314.3216
ARG_OF_PERICENTER = 269.1872
MEAN_ANOMALY   = 90.8915

EPHEMERIS_TYPE = 0
CLASSIFICATION_TYPE = U
NORAD_CAT_ID   = 67209
ELEMENT_SET_NO = 999
REV_AT_EPOCH   = 574
BSTAR          = .46975E-3
MEAN_MOTION_DOT = .20494E-3
MEAN_MOTION_DDOT = 0

CCSDS_OMM_VERS = 2.0
CREATION_DATE  = 
ORIGINATOR     = 

OBJECT_NAME    = STARLINK-36173
OBJECT_ID      = 2025-304U
CENTER_NAME    = EARTH
REF_FRAME      = TEME
TIME_SYSTEM    = UTC
MEAN_ELEMENT_THEORY = SGP/SGP4

EPOCH          = 2026-01-15T03:31:54.382080
MEAN_MOTION    = 15.42728802
ECCENTRICITY   = .000269
INCLINATION    = 70.0004
RA_OF_ASC_NODE = 314.2914
ARG_OF_PERICENTER = 266.5559
MEAN_ANOMALY   = 93.5315

EPHEMERIS_TYPE = 0
CLASSIFICATION_TYPE = U
NORAD_CAT_ID   = 67210
ELEMENT_SET_NO = 999
REV_AT_EPOCH   = 574
BSTAR          = .15788E-3
MEAN_MOTION_DOT = .6775E-4
MEAN_MOTION_DDOT = 0

CCSDS_OMM_VERS = 2.0
CREATION_DATE  = 
ORIGINATOR     = 

OBJECT_NAME    = STARLINK-36280
OBJECT_ID      = 2025-304V
CENTER_NAME    = EARTH
REF_FRAME      = TEME
TIME_SYSTEM    = UTC
MEAN_ELEMENT_THEORY = SGP/SGP4

EPOCH          = 2026-01-15T03:26:11.970240
MEAN_MOTION    = 15.42738223
ECCENTRICITY   = .000287
INCLINATION    = 70.0004
RA_OF_ASC_NODE = 314.2761
ARG_OF_PERICENTER = 269.3073
MEAN_ANOMALY   = 90.7780

EPHEMERIS_TYPE = 0
CLASSIFICATION_TYPE = U
NORAD_CAT_ID   = 67211
ELEMENT_SET_NO = 999
REV_AT_EPOCH   = 574
BSTAR          = .55889E-3
MEAN_MOTION_DOT = .24425E-3
MEAN_MOTION_DDOT = 0

CCSDS_OMM_VERS = 2.0
CREATION_DATE  = 
ORIGINATOR     = 

OBJECT_NAME    = STARLINK-36213
OBJECT_ID      = 2025-304W
CENTER_NAME    = EARTH
REF_FRAME      = TEME
TIME_SYSTEM    = UTC
MEAN_ELEMENT_THEORY = SGP/SGP4

EPOCH          = 2026-01-15T04:00:03.000096
MEAN_MOTION    = 15.42696324
ECCENTRICITY   = .0003166
INCLINATION    = 70.0003
RA_OF_ASC_NODE = 314.1874
ARG_OF_PERICENTER = 273.3155
MEAN_ANOMALY   = 239.2951

EPHEMERIS_TYPE = 0
CLASSIFICATION_TYPE = U
NORAD_CAT_ID   = 67212
ELEMENT_SET_NO = 999
REV_AT_EPOCH   = 583
BSTAR          = .11572E-2
MEAN_MOTION_DOT = .50834E-3
MEAN_MOTION_DDOT = 0

CCSDS_OMM_VERS = 2.0
CREATION_DATE  = 
ORIGINATOR     = 

OBJECT_NAME    = STARLINK-36199
OBJECT_ID      = 2025-304X
CENTER_NAME    = EARTH
REF_FRAME      = TEME
TIME_SYSTEM    = UTC
MEAN_ELEMENT_THEORY = SGP/SGP4

EPOCH          = 2026-01-15T04:00:03.000096
MEAN_MOTION    = 15.42694380
ECCENTRICITY   = .0003392
INCLINATION    = 70.0002
RA_OF_ASC_NODE = 314.1358
ARG_OF_PERICENTER = 277.0064
MEAN_ANOMALY   = 280.5971

EPHEMERIS_TYPE = 0
CLASSIFICATION_TYPE = U
NORAD_CAT_ID   = 67213
ELEMENT_SET_NO = 999
REV_AT_EPOCH   = 583
BSTAR          = .13505E-2
MEAN_MOTION_DOT = .59415E-3
MEAN_MOTION_DDOT = 0

CCSDS_OMM_VERS = 2.0
CREATION_DATE  = 
ORIGINATOR     = 

OBJECT_NAME    = STARLINK-36203
OBJECT_ID      = 2025-304Y
CENTER_NAME    = EARTH
REF_FRAME      = TEME
TIME_SYSTEM    = UTC
MEAN_ELEMENT_THEORY = SGP/SGP4

EPOCH          = 2026-01-15T04:00:03.000096
MEAN_MOTION    = 15.42693955
ECCENTRICITY   = .0002929
INCLINATION    = 70.0005
RA_OF_ASC_NODE = 314.1103
ARG_OF_PERICENTER = 284.4338
MEAN_ANOMALY   = 296.0572

EPHEMERIS_TYPE = 0
CLASSIFICATION_TYPE = U
NORAD_CAT_ID   = 67214
ELEMENT_SET_NO = 999
REV_AT_EPOCH   = 583
BSTAR          = .19178E-2
MEAN_MOTION_DOT = .8471E-3
MEAN_MOTION_DDOT = 0

